{
  "type": "FeatureCollection",
  "features": [
    {
      "type": "Feature",
      "properties": {
        "norad_id": 66174,
        "name": "HTV-X1",
        "group": "stations",
        "lat": 26.460107079756543,
        "lon": 127.37228009611043,
        "alt_km": 415.4722959583214,
        "timestamp": "2025-12-20T11:30:27.135643+00:00",
        "meta_object_name": "HTV-X1",
        "meta_object_id": "2025-241A",
        "meta_epoch": "2025-12-19T18:20:02.855616",
        "meta_mean_motion": 15.49672026,
        "meta_eccentricity": 0.00031868,
        "meta_inclination": 51.6318,
        "meta_ra_of_asc_node": 107.6945,
        "meta_arg_of_pericenter": 273.0117,
        "meta_mean_anomaly": 87.0507,
        "meta_ephemeris_type": 0,
        "meta_classification_type": "U",
        "meta_norad_cat_id": 66174,
        "meta_element_set_no": 999,
        "meta_rev_at_epoch": 51,
        "meta_bstar": 0.0001262585,
        "meta_mean_motion_dot": 6.675e-05,
        "meta_mean_motion_ddot": 0,
        "tle_line1": "1 66174U 25241A   25353.76392194  .00006675  00000+0  12626-3 0  9990",
        "tle_line2": "2 66174  51.6318 107.6945 0003186 273.0117  87.0507 15.49672026   516"
      },
      "geometry": {
        "type": "Point",
        "coordinates": [
          127.37228009611043,
          26.460107079756543
        ]
      }
    },
    {
      "type": "Feature",
      "properties": {
        "norad_id": 66515,
        "name": "SZ-21 MODULE",
        "group": "stations",
        "lat": 41.40785173687971,
        "lon": 55.45459501299749,
        "alt_km": 375.7360600975135,
        "timestamp": "2025-12-20T11:30:27.135668+00:00",
        "meta_object_name": "SZ-21 MODULE",
        "meta_object_id": "2025-246C",
        "meta_epoch": "2025-12-20T00:23:58.586784",
        "meta_mean_motion": 15.62845969,
        "meta_eccentricity": 0.0005614,
        "meta_inclination": 41.4774,
        "meta_ra_of_asc_node": 331.6436,
        "meta_arg_of_pericenter": 298.6843,
        "meta_mean_anomaly": 61.3432,
        "meta_ephemeris_type": 0,
        "meta_classification_type": "U",
        "meta_norad_cat_id": 66515,
        "meta_element_set_no": 999,
        "meta_rev_at_epoch": 558,
        "meta_bstar": 0.000225,
        "meta_mean_motion_dot": 0.00020613,
        "meta_mean_motion_ddot": 0,
        "tle_line1": "1 66515U 25246C   25354.01665031  .00020613  00000+0  22500-3 0  9996",
        "tle_line2": "2 66515  41.4774 331.6436 0005614 298.6843  61.3432 15.62845969  5586"
      },
      "geometry": {
        "type": "Point",
        "coordinates": [
          55.45459501299749,
          41.40785173687971
        ]
      }
    },
    {
      "type": "Feature",
      "properties": {
        "norad_id": 66645,
        "name": "SHENZHOU-22",
        "group": "stations",
        "lat": 41.31090615839995,
        "lon": 54.08589822713887,
        "alt_km": 377.2402397853966,
        "timestamp": "2025-12-20T11:30:27.135686+00:00",
        "meta_object_name": "SHENZHOU-22",
        "meta_object_id": "2025-272A",
        "meta_epoch": "2025-12-19T22:50:46.623264",
        "meta_mean_motion": 15.5948412,
        "meta_eccentricity": 0.00077419,
        "meta_inclination": 41.4684,
        "meta_ra_of_asc_node": 332.9127,
        "meta_arg_of_pericenter": 94.7688,
        "meta_mean_anomaly": 265.4034,
        "meta_ephemeris_type": 0,
        "meta_classification_type": "U",
        "meta_norad_cat_id": 66645,
        "meta_element_set_no": 999,
        "meta_rev_at_epoch": 26357,
        "meta_bstar": 0.0002198914,
        "meta_mean_motion_dot": 0.00017657,
        "meta_mean_motion_ddot": 0,
        "tle_line1": "1 66645U 25272A   25353.95192851  .00017657  00000+0  21989-3 0  9990",
        "tle_line2": "2 66645  41.4684 332.9127 0007741  94.7688 265.4034 15.59484120263570"
      },
      "geometry": {
        "type": "Point",
        "coordinates": [
          54.08589822713887,
          41.31090615839995
        ]
      }
    },
    {
      "type": "Feature",
      "properties": {
        "norad_id": 66664,
        "name": "SOYUZ-MS 28",
        "group": "stations",
        "lat": 26.460157384896416,
        "lon": 127.37233415403477,
        "alt_km": 415.4726198991075,
        "timestamp": "2025-12-20T11:30:27.135704+00:00",
        "meta_object_name": "SOYUZ-MS 28",
        "meta_object_id": "2025-275A",
        "meta_epoch": "2025-12-19T18:20:02.854752",
        "meta_mean_motion": 15.49672026,
        "meta_eccentricity": 0.0003187,
        "meta_inclination": 51.6318,
        "meta_ra_of_asc_node": 107.6945,
        "meta_arg_of_pericenter": 273.0117,
        "meta_mean_anomaly": 87.0507,
        "meta_ephemeris_type": 0,
        "meta_classification_type": "U",
        "meta_norad_cat_id": 66664,
        "meta_element_set_no": 999,
        "meta_rev_at_epoch": 353,
        "meta_bstar": 0.00012626,
        "meta_mean_motion_dot": 6.675e-05,
        "meta_mean_motion_ddot": 0,
        "tle_line1": "1 66664U 25275A   25353.76392193  .00006675  00000+0  12626-3 0  9990",
        "tle_line2": "2 66664  51.6318 107.6945 0003187 273.0117  87.0507 15.49672026  3536"
      },
      "geometry": {
        "type": "Point",
        "coordinates": [
          127.37233415403477,
          26.460157384896416
        ]
      }
    },
    {
      "type": "Feature",
      "properties": {
        "norad_id": 66906,
        "name": "1998-067XS",
        "group": "stations",
        "lat": 51.15129098518181,
        "lon": -155.61160111829523,
        "alt_km": 408.50783293656696,
        "timestamp": "2025-12-20T11:30:27.135720+00:00",
        "meta_object_name": "1998-067XS",
        "meta_object_id": "1998-067XS",
        "meta_epoch": "2025-12-19T19:37:45.032448",
        "meta_mean_motion": 15.50933488,
        "meta_eccentricity": 0.00029661,
        "meta_inclination": 51.6311,
        "meta_ra_of_asc_node": 107.3061,
        "meta_arg_of_pericenter": 238.2809,
        "meta_mean_anomaly": 121.7891,
        "meta_ephemeris_type": 0,
        "meta_classification_type": "U",
        "meta_norad_cat_id": 66906,
        "meta_element_set_no": 999,
        "meta_rev_at_epoch": 271,
        "meta_bstar": 0.00034986922,
        "meta_mean_motion_dot": 0.00020233,
        "meta_mean_motion_ddot": 0,
        "tle_line1": "1 66906U 98067XS  25353.81788232  .00020233  00000+0  34987-3 0  9997",
        "tle_line2": "2 66906  51.6311 107.3061 0002966 238.2809 121.7891 15.50933488  2714"
      },
      "geometry": {
        "type": "Point",
        "coordinates": [
          -155.61160111829523,
          51.15129098518181
        ]
      }
    },
    {
      "type": "Feature",
      "properties": {
        "norad_id": 66907,
        "name": "1998-067XT",
        "group": "stations",
        "lat": 27.463900038989742,
        "lon": -100.39720054405835,
        "alt_km": 408.04260356035866,
        "timestamp": "2025-12-20T11:30:27.135740+00:00",
        "meta_object_name": "1998-067XT",
        "meta_object_id": "1998-067XT",
        "meta_epoch": "2025-12-19T11:42:50.767776",
        "meta_mean_motion": 15.52255247,
        "meta_eccentricity": 0.0003998,
        "meta_inclination": 51.6306,
        "meta_ra_of_asc_node": 108.8528,
        "meta_arg_of_pericenter": 265.7173,
        "meta_mean_anomaly": 94.336,
        "meta_ephemeris_type": 0,
        "meta_classification_type": "U",
        "meta_norad_cat_id": 66907,
        "meta_element_set_no": 999,
        "meta_rev_at_epoch": 266,
        "meta_bstar": 0.00077339,
        "meta_mean_motion_dot": 0.00047666,
        "meta_mean_motion_ddot": 0,
        "tle_line1": "1 66907U 98067XT  25353.48808759  .00047666  00000+0  77339-3 0  9995",
        "tle_line2": "2 66907  51.6306 108.8528 0003998 265.7173  94.3360 15.52255247  2660"
      },
      "geometry": {
        "type": "Point",
        "coordinates": [
          -100.39720054405835,
          27.463900038989742
        ]
      }
    },
    {
      "type": "Feature",
      "properties": {
        "norad_id": 66908,
        "name": "1998-067XU",
        "group": "stations",
        "lat": 24.21496455824375,
        "lon": -96.96429553417104,
        "alt_km": 407.9495572035985,
        "timestamp": "2025-12-20T11:30:27.135752+00:00",
        "meta_object_name": "1998-067XU",
        "meta_object_id": "1998-067XU",
        "meta_epoch": "2025-12-18T14:03:56.443680",
        "meta_mean_motion": 15.52259493,
        "meta_eccentricity": 0.00039838,
        "meta_inclination": 51.6306,
        "meta_ra_of_asc_node": 113.3296,
        "meta_arg_of_pericenter": 260.0245,
        "meta_mean_anomaly": 100.0295,
        "meta_ephemeris_type": 0,
        "meta_classification_type": "U",
        "meta_norad_cat_id": 66908,
        "meta_element_set_no": 999,
        "meta_rev_at_epoch": 252,
        "meta_bstar": 0.00087908108,
        "meta_mean_motion_dot": 0.00054298,
        "meta_mean_motion_ddot": 0,
        "tle_line1": "1 66908U 98067XU  25352.58606995  .00054298  00000+0  87908-3 0  9996",
        "tle_line2": "2 66908  51.6306 113.3296 0003983 260.0245 100.0295 15.52259493  2520"
      },
      "geometry": {
        "type": "Point",
        "coordinates": [
          -96.96429553417104,
          24.21496455824375
        ]
      }
    }
  ]
}